ONEWEB-0435             
1 51632U 22012L   24344.68744980  .00000466  00000+0  12976-2 0  9999
2 51632  87.8891 146.7157 0001242  75.1132 285.0133 13.10370812136692
ONEWEB-0436             
1 51633U 22012M   24344.65037633  .00000041  00000+0  71314-4 0  9999
2 51633  87.9090 116.3224 0001306  97.9214 262.2066 13.17650226140657
ONEWEB-0438             
1 51634U 22012N   24344.74721209  .00000576  00000+0  16127-2 0  9991
2 51634  87.8893 146.7043 0001695  93.5805 266.5517 13.10373585136738
ONEWEB-0439             
1 51635U 22012P   24344.90323395  .00000614  00000+0  17239-2 0  9992
2 51635  87.8896 146.6599 0001456  91.5515 268.5779 13.10377388136735
ONEWEB-0442             
1 51636U 22012Q   24344.79463925  .00000036  00000+0  60131-4 0  9993
2 51636  87.9094 116.3345 0002143 111.1599 248.9762 13.17652334140660
ONEWEB-0443             
1 51637U 22012R   24344.81404678  .00000070  00000+0  14706-3 0  9991
2 51637  87.9096 116.3419 0001823  92.1276 268.0064 13.17651393140717
ONEWEB-0444             
1 51638U 22012S   24344.89327423  .00000261  00000+0  71193-3 0  9997
2 51638  87.8891 146.6745 0001448  85.5767 274.5526 13.10376701136745
ONEWEB-0445             
1 51639U 22012T   24344.68579159  .00000538  00000+0  15048-2 0  9993
2 51639  87.8881 146.6794 0001573 101.6083 258.5221 13.10371131136723
